$$SOE
2460728.500000000, A.D. 2025-Feb-22 00:00:00.0000, 2.469482869935604E+09, 5.564946439515060E+09, -2.880259100655770E+07,
2460735.500000000, A.D. 2025-Mar-01 00:00:00.0000, 2.466832636734886E+09, 5.566200168615839E+09, -2.873788742714834E+07,
2460742.500000000, A.D. 2025-Mar-08 00:00:00.0000, 2.464181868770663E+09, 5.567452609205945E+09, -2.867317750446653E+07,
2460749.500000000, A.D. 2025-Mar-15 00:00:00.0000, 2.461530571053438E+09, 5.568703763056351E+09, -2.860846156907010E+07,
2460756.500000000, A.D. 2025-Mar-22 00:00:00.0000, 2.458878747423154E+09, 5.569953634080959E+09, -2.854373970303369E+07,
2460763.500000000, A.D. 2025-Mar-29 00:00:00.0000, 2.456226399688125E+09, 5.571202226504479E+09, -2.847901180481887E+07,
2460770.500000000, A.D. 2025-Apr-05 00:00:00.0000, 2.453573528458543E+09, 5.572449543913999E+09, -2.841427773655725E+07,
2460777.500000000, A.D. 2025-Apr-12 00:00:00.0000, 2.450920133748601E+09, 5.573695589298498E+09, -2.834953736890554E+07,
2460784.500000000, A.D. 2025-Apr-19 00:00:00.0000, 2.448266215160044E+09, 5.574940365195212E+09, -2.828479057861257E+07,
2460791.500000000, A.D. 2025-Apr-26 00:00:00.0000, 2.445611771918806E+09, 5.576183873740149E+09, -2.822003724057269E+07,
2460798.500000000, A.D. 2025-May-03 00:00:00.0000, 2.442956802878409E+09, 5.577426116642322E+09, -2.815527722344422E+07,
2460805.500000000, A.D. 2025-May-10 00:00:00.0000, 2.440301306518711E+09, 5.578667095090718E+09, -2.809051039092803E+07,
2460812.500000000, A.D. 2025-May-17 00:00:00.0000, 2.437645280976737E+09, 5.579906809553288E+09, -2.802573661557055E+07,
2460819.500000000, A.D. 2025-May-24 00:00:00.0000, 2.434988724283516E+09, 5.581145259413768E+09, -2.796095582556939E+07,
2460826.500000000, A.D. 2025-May-31 00:00:00.0000, 2.432331635224695E+09, 5.582382442757582E+09, -2.789616809755826E+07,
2460833.500000000, A.D. 2025-Jun-07 00:00:00.0000, 2.429674014423984E+09, 5.583618357511822E+09, -2.783137366013980E+07,
2460840.500000000, A.D. 2025-Jun-14 00:00:00.0000, 2.427015863284893E+09, 5.584853003272665E+09, -2.776657264579654E+07,
2460847.500000000, A.D. 2025-Jun-21 00:00:00.0000, 2.424357182007517E+09, 5.586086380549037E+09, -2.770176497009301E+07,
2460854.500000000, A.D. 2025-Jun-28 00:00:00.0000, 2.421697969808561E+09, 5.587318489187387E+09, -2.763695048084521E+07,
2460861.500000000, A.D. 2025-Jul-05 00:00:00.0000, 2.419038225827899E+09, 5.588549328134214E+09, -2.757212906187010E+07,
2460868.500000000, A.D. 2025-Jul-12 00:00:00.0000, 2.416377949530653E+09, 5.589778895731124E+09, -2.750730064782310E+07,
2460875.500000000, A.D. 2025-Jul-19 00:00:00.0000, 2.413717140794371E+09, 5.591007189967529E+09, -2.744246521444702E+07,
2460882.500000000, A.D. 2025-Jul-26 00:00:00.0000, 2.411055799891225E+09, 5.592234208634555E+09, -2.737762276802492E+07,
2460889.500000000, A.D. 2025-Aug-02 00:00:00.0000, 2.408393927430635E+09, 5.593459949401964E+09, -2.731277333815026E+07,
2460896.500000000, A.D. 2025-Aug-09 00:00:00.0000, 2.405731524285712E+09, 5.594684409803699E+09, -2.724791697701669E+07,
2460903.500000000, A.D. 2025-Aug-16 00:00:00.0000, 2.403068591580473E+09, 5.595907587069078E+09, -2.718305377728200E+07,
2460910.500000000, A.D. 2025-Aug-23 00:00:00.0000, 2.400405131030472E+09, 5.597129477816409E+09, -2.711818393378258E+07,
2460917.500000000, A.D. 2025-Aug-30 00:00:00.0000, 2.397741145965752E+09, 5.598350078323312E+09, -2.705330782069468E+07,
2460924.500000000, A.D. 2025-Sep-06 00:00:00.0000, 2.395076641618010E+09, 5.599569386374187E+09, -2.698842587205863E+07,
2460931.500000000, A.D. 2025-Sep-13 00:00:00.0000, 2.392411623001218E+09, 5.600787402202128E+09, -2.692353831509352E+07,
2460938.500000000, A.D. 2025-Sep-20 00:00:00.0000, 2.389746093658927E+09, 5.602004126881029E+09, -2.685864519065380E+07,
2460945.500000000, A.D. 2025-Sep-27 00:00:00.0000, 2.387080056336807E+09, 5.603219561279545E+09, -2.679374650340676E+07,
2460952.500000000, A.D. 2025-Oct-04 00:00:00.0000, 2.384413513563722E+09, 5.604433706116405E+09, -2.672884227254176E+07,
2460959.500000000, A.D. 2025-Oct-11 00:00:00.0000, 2.381746467767696E+09, 5.605646562174190E+09, -2.666393252566957E+07,
2460966.500000000, A.D. 2025-Oct-18 00:00:00.0000, 2.379078921210439E+09, 5.606858130397443E+09, -2.659901728433537E+07,
2460973.500000000, A.D. 2025-Oct-25 00:00:00.0000, 2.376410875879945E+09, 5.608068411886465E+09, -2.653409655306768E+07,
2460980.500000000, A.D. 2025-Nov-01 00:00:00.0000, 2.373742333380584E+09, 5.609277407802671E+09, -2.646917031442189E+07,
2460987.500000000, A.D. 2025-Nov-08 00:00:00.0000, 2.371073294855192E+09, 5.610485119154535E+09, -2.640423853590393E+07,
2460994.500000000, A.D. 2025-Nov-15 00:00:00.0000, 2.368403761086970E+09, 5.611691546406057E+09, -2.633930120732093E+07,
2461001.500000000, A.D. 2025-Nov-22 00:00:00.0000, 2.365733733183824E+09, 5.612896689128313E+09, -2.627435842772579E+07,
2461008.500000000, A.D. 2025-Nov-29 00:00:00.0000, 2.363063213691878E+09, 5.614100546829497E+09, -2.620941043535352E+07,
2461015.500000000, A.D. 2025-Dec-06 00:00:00.0000, 2.360392205860693E+09, 5.615303120827856E+09, -2.614445738298368E+07,
2461022.500000000, A.D. 2025-Dec-13 00:00:00.0000, 2.357720711493797E+09, 5.616504413797544E+09, -2.607949917409611E+07,
2461029.500000000, A.D. 2025-Dec-20 00:00:00.0000, 2.355048730877696E+09, 5.617704428010916E+09, -2.601453559672904E+07,
2461036.500000000, A.D. 2025-Dec-27 00:00:00.0000, 2.352376263715520E+09, 5.618903164868950E+09, -2.594956644482565E+07,
2461043.500000000, A.D. 2026-Jan-03 00:00:00.0000, 2.349703309606118E+09, 5.620100625104868E+09, -2.588459154359150E+07,
2461050.500000000, A.D. 2026-Jan-10 00:00:00.0000, 2.347029868178323E+09, 5.621296808982642E+09, -2.581961074434161E+07,
2461057.500000000, A.D. 2026-Jan-17 00:00:00.0000, 2.344355939112992E+09, 5.622491716399733E+09, -2.575462391761923E+07,
2461064.500000000, A.D. 2026-Jan-24 00:00:00.0000, 2.341681522130717E+09, 5.623685346917513E+09, -2.568963094975424E+07,
2461071.500000000, A.D. 2026-Jan-31 00:00:00.0000, 2.339006616968709E+09, 5.624877699712980E+09, -2.562463174554849E+07,
2461078.500000000, A.D. 2026-Feb-07 00:00:00.0000, 2.336331223408322E+09, 5.626068773395293E+09, -2.555962624727416E+07,
2461085.500000000, A.D. 2026-Feb-14 00:00:00.0000, 2.333655341606327E+09, 5.627258565672729E+09, -2.549461449435472E+07,
2461092.500000000, A.D. 2026-Feb-21 00:00:00.0000, 2.330978973117449E+09, 5.628447073447880E+09, -2.542959671200776E+07,
2461099.500000000, A.D. 2026-Feb-28 00:00:00.0000, 2.328302121523362E+09, 5.629634294495203E+09, -2.536457323499537E+07,
2461106.500000000, A.D. 2026-Mar-07 00:00:00.0000, 2.325624790609577E+09, 5.630820228771285E+09, -2.529954423694539E+07,
2461113.500000000, A.D. 2026-Mar-14 00:00:00.0000, 2.322946982865938E+09, 5.632004877025214E+09, -2.523450971038723E+07,
2461120.500000000, A.D. 2026-Mar-21 00:00:00.0000, 2.320268700093606E+09, 5.633188239607180E+09, -2.516946962408805E+07,
2461127.500000000, A.D. 2026-Mar-28 00:00:00.0000, 2.317589944109131E+09, 5.634370316503923E+09, -2.510442398920774E+07,
2461134.500000000, A.D. 2026-Apr-04 00:00:00.0000, 2.314910716941900E+09, 5.635551107635433E+09, -2.503937285765147E+07,
2461141.500000000, A.D. 2026-Apr-11 00:00:00.0000, 2.312231020798878E+09, 5.636730613052907E+09, -2.497431630698061E+07,
2461148.500000000, A.D. 2026-Apr-18 00:00:00.0000, 2.309550857956058E+09, 5.637908833031257E+09, -2.490925442683935E+07,
2461155.500000000, A.D. 2026-Apr-25 00:00:00.0000, 2.306870230622654E+09, 5.639085768070890E+09, -2.484418730969214E+07,
2461162.500000000, A.D. 2026-May-02 00:00:00.0000, 2.304189140809106E+09, 5.640261418779093E+09, -2.477911505091906E+07,
2461169.500000000, A.D. 2026-May-09 00:00:00.0000, 2.301507590323842E+09, 5.641435785564822E+09, -2.471403777494121E+07,
2461176.500000000, A.D. 2026-May-16 00:00:00.0000, 2.298825581277143E+09, 5.642608868285270E+09, -2.464895571061110E+07,
2461183.500000000, A.D. 2026-May-23 00:00:00.0000, 2.296143117144228E+09, 5.643780666866605E+09, -2.458386923700428E+07,
2461190.500000000, A.D. 2026-May-30 00:00:00.0000, 2.293460202309301E+09, 5.644951183218476E+09, -2.451877868283987E+07,
2461197.500000000, A.D. 2026-Jun-06 00:00:00.0000, 2.290776839773384E+09, 5.646120421168752E+09, -2.445368411804652E+07,
2461204.500000000, A.D. 2026-Jun-13 00:00:00.0000, 2.288093030691928E+09, 5.647288384617447E+09, -2.438858545756221E+07,
2461211.500000000, A.D. 2026-Jun-20 00:00:00.0000, 2.285408775241201E+09, 5.648455076835996E+09, -2.432348259249830E+07,
2461218.500000000, A.D. 2026-Jun-27 00:00:00.0000, 2.282724073115084E+09, 5.649620500572026E+09, -2.425837542091751E+07,
2461225.500000000, A.D. 2026-Jul-04 00:00:00.0000, 2.280038923652171E+09, 5.650784658184794E+09, -2.419326384180665E+07,
2461232.500000000, A.D. 2026-Jul-11 00:00:00.0000, 2.277353325847079E+09, 5.651947551679407E+09, -2.412814774660707E+07,
2461239.500000000, A.D. 2026-Jul-18 00:00:00.0000, 2.274667278338679E+09, 5.653109182665632E+09, -2.406302701495385E+07,
2461246.500000000, A.D. 2026-Jul-25 00:00:00.0000, 2.271980779399675E+09, 5.654269552244088E+09, -2.399790151688170E+07,
2461253.500000000, A.D. 2026-Aug-01 00:00:00.0000, 2.269293826975584E+09, 5.655428660771755E+09, -2.393277113002896E+07,
2461260.500000000, A.D. 2026-Aug-08 00:00:00.0000, 2.266606418987984E+09, 5.656586507471014E+09, -2.386763579463267E+07,
2461267.500000000, A.D. 2026-Aug-15 00:00:00.0000, 2.263918554316971E+09, 5.657743090332726E+09, -2.380249560766482E+07,
2461274.500000000, A.D. 2026-Aug-22 00:00:00.0000, 2.261230233701683E+09, 5.658898407534788E+09, -2.373735078656054E+07,
2461281.500000000, A.D. 2026-Aug-29 00:00:00.0000, 2.258541458269684E+09, 5.660052459003596E+09, -2.367220140479398E+07,
2461288.500000000, A.D. 2026-Sep-05 00:00:00.0000, 2.255852227828729E+09, 5.661205245250450E+09, -2.360704732939196E+07,
2461295.500000000, A.D. 2026-Sep-12 00:00:00.0000, 2.253162541375730E+09, 5.662356765978678E+09, -2.354188838156509E+07,
$$EOE